[{"OBJECT_NAME":"STARLINK-3532","OBJECT_ID":"2022-016P","EPOCH":"2025-12-09T02:14:52.549728","MEAN_MOTION":15.08861839,"ECCENTRICITY":0.000139,"INCLINATION":53.2185,"RA_OF_ASC_NODE":15.8234,"ARG_OF_PERICENTER":79.0751,"MEAN_ANOMALY":281.0397,"EPHEMERIS_TYPE":0,"CLASSIFICATION_TYPE":"U","NORAD_CAT_ID":51727,"ELEMENT_SET_NO":999,"REV_AT_EPOCH":20974,"BSTAR":-0.00024694,"MEAN_MOTION_DOT":-4.218e-5,"MEAN_MOTION_DDOT":0},{"OBJECT_NAME":"STARLINK-3523","OBJECT_ID":"2022-016R","EPOCH":"2025-12-08T19:17:34.805184","MEAN_MOTION":15.08841249,"ECCENTRICITY":0.00012218,"INCLINATION":53.219,"RA_OF_ASC_NODE":7.1258,"ARG_OF_PERICENTER":87.7771,"MEAN_ANOMALY":272.3361,"EPHEMERIS_TYPE":0,"CLASSIFICATION_TYPE":"U","NORAD_CAT_ID":51729,"ELEMENT_SET_NO":999,"REV_AT_EPOCH":20984,"BSTAR":1.565353e-5,"MEAN_MOTION_DOT":-3.9e-7,"MEAN_MOTION_DDOT":0},{"OBJECT_NAME":"STARLINK-3514","OBJECT_ID":"2022-016T","EPOCH":"2025-12-09T01:28:30.976896","MEAN_MOTION":15.08846034,"ECCENTRICITY":0.0001752,"INCLINATION":53.2183,"RA_OF_ASC_NODE":5.9703,"ARG_OF_PERICENTER":90.0082,"MEAN_ANOMALY":270.1111,"EPHEMERIS_TYPE":0,"CLASSIFICATION_TYPE":"U","NORAD_CAT_ID":51731,"ELEMENT_SET_NO":999,"REV_AT_EPOCH":20988,"BSTAR":7.6965e-5,"MEAN_MOTION_DOT":9.37e-6,"MEAN_MOTION_DDOT":0},{"OBJECT_NAME":"STARLINK-3518","OBJECT_ID":"2022-016U","EPOCH":"2025-12-08T18:45:46.684512","MEAN_MOTION":15.08858769,"ECCENTRICITY":0.00014568,"INCLINATION":53.2183,"RA_OF_ASC_NODE":7.2217,"ARG_OF_PERICENTER":90.4827,"MEAN_ANOMALY":269.6332,"EPHEMERIS_TYPE":0,"CLASSIFICATION_TYPE":"U","NORAD_CAT_ID":51732,"ELEMENT_SET_NO":999,"REV_AT_EPOCH":21098,"BSTAR":-2.8360419e-5,"MEAN_MOTION_DOT":-7.4e-6,"MEAN_MOTION_DDOT":0},{"OBJECT_NAME":"STARLINK-3525","OBJECT_ID":"2022-016V","EPOCH":"2025-12-08T11:00:49.953600","MEAN_MOTION":15.08848442,"ECCENTRICITY":0.00015029,"INCLINATION":53.2182,"RA_OF_ASC_NODE":8.6816,"ARG_OF_PERICENTER":83.8977,"MEAN_ANOMALY":276.2187,"EPHEMERIS_TYPE":0,"CLASSIFICATION_TYPE":"U","NORAD_CAT_ID":51733,"ELEMENT_SET_NO":999,"REV_AT_EPOCH":20979,"BSTAR":-0.00010280919,"MEAN_MOTION_DOT":-1.924e-5,"MEAN_MOTION_DDOT":0},{"OBJECT_NAME":"STARLINK-3450","OBJECT_ID":"2022-016W","EPOCH":"2025-12-08T18:29:52.901088","MEAN_MOTION":15.08841184,"ECCENTRICITY":0.00014997,"INCLINATION":53.2177,"RA_OF_ASC_NODE":7.2715,"ARG_OF_PERICENTER":98.2008,"MEAN_ANOMALY":261.9155,"EPHEMERIS_TYPE":0,"CLASSIFICATION_TYPE":"U","NORAD_CAT_ID":51734,"ELEMENT_SET_NO":999,"REV_AT_EPOCH":20983,"BSTAR":4.5322658e-5,"MEAN_MOTION_DOT":4.33e-6,"MEAN_MOTION_DDOT":0},{"OBJECT_NAME":"STARLINK-3517","OBJECT_ID":"2022-016X","EPOCH":"2025-12-09T01:02:01.431168","MEAN_MOTION":15.08839638,"ECCENTRICITY":0.0001749,"INCLINATION":53.2211,"RA_OF_ASC_NODE":6.0494,"ARG_OF_PERICENTER":96.8871,"MEAN_ANOMALY":263.232,"EPHEMERIS_TYPE":0,"CLASSIFICATION_TYPE":"U","NORAD_CAT_ID":51735,"ELEMENT_SET_NO":999,"REV_AT_EPOCH":20988,"BSTAR":4.2334e-5,"MEAN_MOTION_DOT":3.86e-6,"MEAN_MOTION_DDOT":0},{"OBJECT_NAME":"STARLINK-3447","OBJECT_ID":"2022-016Y","EPOCH":"2025-12-08T18:31:16.529376","MEAN_MOTION":15.08842848,"ECCENTRICITY":0.00015105,"INCLINATION":53.2181,"RA_OF_ASC_NODE":7.354,"ARG_OF_PERICENTER":98.7637,"MEAN_ANOMALY":261.3526,"EPHEMERIS_TYPE":0,"CLASSIFICATION_TYPE":"U","NORAD_CAT_ID":51736,"ELEMENT_SET_NO":999,"REV_AT_EPOCH":20983,"BSTAR":-1.1272846e-5,"MEAN_MOTION_DOT":-4.67e-6,"MEAN_MOTION_DDOT":0},{"OBJECT_NAME":"STARLINK-3509","OBJECT_ID":"2022-016Z","EPOCH":"2025-12-09T00:56:43.474848","MEAN_MOTION":15.08843179,"ECCENTRICITY":0.0001474,"INCLINATION":53.2197,"RA_OF_ASC_NODE":6.0657,"ARG_OF_PERICENTER":99.3219,"MEAN_ANOMALY":260.794,"EPHEMERIS_TYPE":0,"CLASSIFICATION_TYPE":"U","NORAD_CAT_ID":51737,"ELEMENT_SET_NO":999,"REV_AT_EPOCH":20987,"BSTAR":8.2576e-6,"MEAN_MOTION_DOT":-1.57e-6,"MEAN_MOTION_DDOT":0},{"OBJECT_NAME":"STARLINK-3515","OBJECT_ID":"2022-016AA","EPOCH":"2025-12-09T02:05:36.557088","MEAN_MOTION":15.0884,"ECCENTRICITY":0.0001206,"INCLINATION":53.2189,"RA_OF_ASC_NODE":5.852,"ARG_OF_PERICENTER":80.7838,"MEAN_ANOMALY":279.329,"EPHEMERIS_TYPE":0,"CLASSIFICATION_TYPE":"U","NORAD_CAT_ID":51738,"ELEMENT_SET_NO":999,"REV_AT_EPOCH":20988,"BSTAR":-5.7987e-5,"MEAN_MOTION_DOT":-1.211e-5,"MEAN_MOTION_DDOT":0},{"OBJECT_NAME":"STARLINK-3516","OBJECT_ID":"2022-016AB","EPOCH":"2025-12-09T00:46:07.265856","MEAN_MOTION":15.08842337,"ECCENTRICITY":0.0001516,"INCLINATION":53.2194,"RA_OF_ASC_NODE":6.0999,"ARG_OF_PERICENTER":93.9548,"MEAN_ANOMALY":266.1617,"EPHEMERIS_TYPE":0,"CLASSIFICATION_TYPE":"U","NORAD_CAT_ID":51739,"ELEMENT_SET_NO":999,"REV_AT_EPOCH":20987,"BSTAR":-1.5214e-6,"MEAN_MOTION_DOT":-3.12e-6,"MEAN_MOTION_DDOT":0},{"OBJECT_NAME":"STARLINK-3500","OBJECT_ID":"2022-016AC","EPOCH":"2025-12-08T08:25:45.821856","MEAN_MOTION":15.08798031,"ECCENTRICITY":0.00014667,"INCLINATION":53.2189,"RA_OF_ASC_NODE":9.1555,"ARG_OF_PERICENTER":99.6961,"MEAN_ANOMALY":260.4196,"EPHEMERIS_TYPE":0,"CLASSIFICATION_TYPE":"U","NORAD_CAT_ID":51740,"ELEMENT_SET_NO":999,"REV_AT_EPOCH":20977,"BSTAR":0.00047037671,"MEAN_MOTION_DOT":7.197e-5,"MEAN_MOTION_DDOT":0},{"OBJECT_NAME":"STARLINK-3520","OBJECT_ID":"2022-016AD","EPOCH":"2025-12-09T02:12:17.534304","MEAN_MOTION":15.08836392,"ECCENTRICITY":0.0001595,"INCLINATION":53.2179,"RA_OF_ASC_NODE":5.8387,"ARG_OF_PERICENTER":83.147,"MEAN_ANOMALY":276.9704,"EPHEMERIS_TYPE":0,"CLASSIFICATION_TYPE":"U","NORAD_CAT_ID":51741,"ELEMENT_SET_NO":999,"REV_AT_EPOCH":20988,"BSTAR":-3.4037e-5,"MEAN_MOTION_DOT":-8.3e-6,"MEAN_MOTION_DDOT":0},{"OBJECT_NAME":"STARLINK-3521","OBJECT_ID":"2022-016AE","EPOCH":"2025-12-09T02:16:14.666016","MEAN_MOTION":15.08833364,"ECCENTRICITY":0.0001236,"INCLINATION":53.2176,"RA_OF_ASC_NODE":6.011,"ARG_OF_PERICENTER":99.8166,"MEAN_ANOMALY":260.2966,"EPHEMERIS_TYPE":0,"CLASSIFICATION_TYPE":"U","NORAD_CAT_ID":51742,"ELEMENT_SET_NO":999,"REV_AT_EPOCH":20988,"BSTAR":1.713e-5,"MEAN_MOTION_DOT":-1.5e-7,"MEAN_MOTION_DDOT":0},{"OBJECT_NAME":"STARLINK-3512","OBJECT_ID":"2022-016AF","EPOCH":"2025-12-09T00:42:08.170272","MEAN_MOTION":15.08842103,"ECCENTRICITY":0.0001321,"INCLINATION":53.2168,"RA_OF_ASC_NODE":356.0331,"ARG_OF_PERICENTER":97.9379,"MEAN_ANOMALY":262.1763,"EPHEMERIS_TYPE":0,"CLASSIFICATION_TYPE":"U","NORAD_CAT_ID":51743,"ELEMENT_SET_NO":999,"REV_AT_EPOCH":21001,"BSTAR":-1.6418e-5,"MEAN_MOTION_DOT":-5.49e-6,"MEAN_MOTION_DDOT":0},{"OBJECT_NAME":"STARLINK-3452","OBJECT_ID":"2022-016AG","EPOCH":"2025-12-09T01:44:25.060128","MEAN_MOTION":15.08842917,"ECCENTRICITY":0.0001427,"INCLINATION":53.2182,"RA_OF_ASC_NODE":5.9485,"ARG_OF_PERICENTER":84.4343,"MEAN_ANOMALY":275.6812,"EPHEMERIS_TYPE":0,"CLASSIFICATION_TYPE":"U","NORAD_CAT_ID":51744,"ELEMENT_SET_NO":999,"REV_AT_EPOCH":20988,"BSTAR":2.2747e-5,"MEAN_MOTION_DOT":7.4e-7,"MEAN_MOTION_DDOT":0},{"OBJECT_NAME":"STARLINK-3449","OBJECT_ID":"2022-016AH","EPOCH":"2025-12-09T02:00:18.527328","MEAN_MOTION":15.08843025,"ECCENTRICITY":0.0001602,"INCLINATION":53.2177,"RA_OF_ASC_NODE":5.8665,"ARG_OF_PERICENTER":94.2369,"MEAN_ANOMALY":265.8807,"EPHEMERIS_TYPE":0,"CLASSIFICATION_TYPE":"U","NORAD_CAT_ID":51745,"ELEMENT_SET_NO":999,"REV_AT_EPOCH":20988,"BSTAR":2.2382e-5,"MEAN_MOTION_DOT":6.8e-7,"MEAN_MOTION_DDOT":0}]
