STARLINK-3532           
1 51727U 22016P   25343.09366377 -.00004218  00000+0 -24694-3 0  9995
2 51727  53.2185  15.8234 0001390  79.0751 281.0397 15.08861839209744
STARLINK-3523           
1 51729U 22016R   25342.80387506 -.00000039  00000+0  15654-4 0  9995
2 51729  53.2190   7.1258 0001221  87.7771 272.3361 15.08841249209841
STARLINK-3514           
1 51731U 22016T   25343.06146964  .00000937  00000+0  76965-4 0  9996
2 51731  53.2183   5.9703 0001752  90.0082 270.1111 15.08846034209888
STARLINK-3518           
1 51732U 22016U   25342.78179033 -.00000740  00000+0 -28360-4 0  9998
2 51732  53.2183   7.2217 0001456  90.4827 269.6332 15.08858769210985
STARLINK-3525           
1 51733U 22016V   25342.45891150 -.00001924  00000+0 -10281-3 0  9991
2 51733  53.2182   8.6816 0001502  83.8977 276.2187 15.08848442209795
STARLINK-3450           
1 51734U 22016W   25342.77075117  .00000433  00000+0  45323-4 0  9992
2 51734  53.2177   7.2715 0001499  98.2008 261.9155 15.08841184209830
STARLINK-3517           
1 51735U 22016X   25343.04307212  .00000386  00000+0  42334-4 0  9994
2 51735  53.2211   6.0494 0001749  96.8871 263.2320 15.08839638209886
STARLINK-3447           
1 51736U 22016Y   25342.77171909 -.00000467  00000+0 -11273-4 0  9996
2 51736  53.2181   7.3540 0001510  98.7637 261.3526 15.08842848209835
STARLINK-3509           
1 51737U 22016Z   25343.03939207 -.00000157  00000+0  82576-5 0  9990
2 51737  53.2197   6.0657 0001474  99.3219 260.7940 15.08843179209875
STARLINK-3515           
1 51738U 22016AA  25343.08722867 -.00001211  00000+0 -57987-4 0  9998
2 51738  53.2189   5.8520 0001206  80.7838 279.3290 15.08840000209882
STARLINK-3516           
1 51739U 22016AB  25343.03202854 -.00000312  00000+0 -15214-5 0  9992
2 51739  53.2194   6.0999 0001516  93.9548 266.1617 15.08842337209871
STARLINK-3500           
1 51740U 22016AC  25342.35122479  .00007197  00000+0  47038-3 0  9995
2 51740  53.2189   9.1555 0001466  99.6961 260.4196 15.08798031209774
STARLINK-3520           
1 51741U 22016AD  25343.09186961 -.00000830  00000+0 -34037-4 0  9999
2 51741  53.2179   5.8387 0001595  83.1470 276.9704 15.08836392209888
STARLINK-3521           
1 51742U 22016AE  25343.09461419 -.00000015  00000+0  17130-4 0  9993
2 51742  53.2176   6.0110 0001236  99.8166 260.2966 15.08833364209883
STARLINK-3512           
1 51743U 22016AF  25343.02926123 -.00000549  00000+0 -16418-4 0  9996
2 51743  53.2168 356.0331 0001321  97.9379 262.1763 15.08842103210012
STARLINK-3452           
1 51744U 22016AG  25343.07251227  .00000074  00000+0  22747-4 0  9991
2 51744  53.2182   5.9485 0001427  84.4343 275.6812 15.08842917209888
STARLINK-3449           
1 51745U 22016AH  25343.08354777  .00000068  00000+0  22382-4 0  9995
2 51745  53.2177   5.8665 0001602  94.2369 265.8807 15.08843025209880
